NORSAT 2                
1 42828U 17042D   26138.43456264  .00007102  00000+0  32026-3 0  9997
2 42828  97.4023 312.3647 0010583 150.3947 209.7890 15.21275734483213
TECHNOSAT               
1 42829U 17042E   26138.32721044  .00002545  00000+0  18414-3 0  9998
2 42829  97.4247 297.1316 0017531 192.1770 167.9036 15.04753476482214
FLYING LAPTOP           
1 42831U 17042G   26138.52072476  .00002419  00000+0  19375-3 0  9998
2 42831  97.4555 295.2231 0017867 222.1273 137.8579 15.00934309482005
WNISAT 1R               
1 42835U 17042L   26138.43996949  .00001606  00000+0  12815-3 0  9991
2 42835  97.4803 295.6329 0009797 264.1048  95.9060 15.01613043482049
LEMUR-2-GREENBERG       
1 42837U 17042N   26138.47596847  .00009110  00000+0  31263-3 0  9996
2 42837  97.3807 319.2627 0010438 110.1873 250.0492 15.30325454483848
LEMUR-2-FURIAUS         
1 42840U 17042R   26138.25182117  .00010967  00000+0  38943-3 0  9991
2 42840  97.3761 317.0642 0008227 161.7936 198.3600 15.29176144483639
CORVUS BC2              
1 42846U 17042X   26138.36566117  .00001613  00000+0  11432-3 0  9997
2 42846  97.4040 300.8850 0012311 207.1063 152.9523 15.06086016482577
CORVUS BC1              
1 42847U 17042Y   26138.36365956  .00001510  00000+0  10679-3 0  9994
2 42847  97.4069 301.6776 0011849 182.5577 177.5592 15.06256630482600
VRSS-2                  
1 42954U 17060A   26138.53008271  .00000878  00000+0  11916-3 0  9997
2 42954  97.6532 177.5901 0016606 191.7376 168.3452 14.81141471464062
MOHAMMED VI-A           
1 43005U 17070A   26138.53995816  .00000176  00000+0  32065-4 0  9996
2 43005  97.9569 211.2771 0001571 105.2484 254.8899 14.77094954459607
FENGYUN 3D              
1 43010U 17072A   26138.47740064  .00000261  00000+0  14502-3 0  9990
2 43010  99.0110 112.3662 0002345 111.9857 248.1567 14.19733397440779
NOAA 20 (JPSS-1)        
1 43013U 17073A   26138.53796767  .00000020  00000+0  30423-4 0  9996
2 43013  98.7763  78.2660 0001327  45.2023 314.9261 14.19505611440266
MAKERSAT 0              
1 43016U 17073D   26138.38555918  .00014841  00000+0  41471-3 0  9993
2 43016  97.4666  20.6957 0110697  20.1590 340.3970 15.30759863461907
RADFXSAT (FOX-1B)       
1 43017U 17073E   26138.56848333  .00006433  00000+0  28271-3 0  9991
2 43017  97.4739   6.3981 0153828  71.1424 290.6416 15.12130594460918
JILIN-1 04              
1 43022U 17074A   26138.56053110  .00008309  00000+0  19943-3 0  9999
2 43022  97.4835 247.4070 0002641 311.0959  49.0059 15.41632431469707
JILIN-1 05              
1 43023U 17074B   26138.56423911  .00005335  00000+0  16787-3 0  9999
2 43023  97.4843 244.3338 0004549 349.0513  11.0629 15.33378816469466
JILIN-1 06              
1 43024U 17074C   26138.53372551  .00004003  00000+0  12673-3 0  9991
2 43024  97.4770 241.3463 0006510 357.7434   2.3777 15.33333472469297
IRIDIUM 116             
1 43072U 17083C   26138.49360345  .00000015  00000+0 -17352-5 0  9998
2 43072  86.3959 334.4213 0001866  80.8125 279.3282 14.34218500439910
IRIDIUM 130             
1 43073U 17083D   26138.46188756  .00000065  00000+0  16189-4 0  9990
2 43073  86.3965 334.7071 0002214  82.0688 278.0759 14.34218322439859
LKW-2                   
1 43080U 17084A   26138.52296832  .00005513  00000+0  21763-3 0  9997
2 43080  97.1209 179.7112 0002251  40.9302 319.2106 15.25915132467161
SUPERVIEW-1 03          
1 43099U 18002A   26138.51174063  .00009268  00000+0  23921-3 0  9997
2 43099  97.3133 223.4181 0046200 287.9794  71.6419 15.38266443463803
CARTOSAT-2F             
1 43111U 18004A   26138.50341437  .00000632  00000+0  33264-4 0  9992
2 43111  97.4809 198.4235 0001476  46.9525 313.1833 15.19213737462823
LKW-3                   
1 43146U 18006A   26138.45687229  .00005470  00000+0  16558-3 0  9999
2 43146  97.6584 297.8896 0004008  67.0043 293.1621 15.34619766464152
ASNARO-2                
1 43152U 18007A   26138.47722797  .00005476  00000+0  23979-3 0  9990
2 43152  97.3980 145.8671 0001751  92.0478 268.0959 15.22434403462895
JILIN-1 07              
1 43159U 18008E   26138.48655867  .00005510  00000+0  16865-3 0  9997
2 43159  97.1784 159.2170 0009231 152.9460 207.2267 15.34186585460447
JILIN-1 08              
1 43160U 18008F   26138.46860039  .00004430  00000+0  13999-3 0  9991
2 43160  97.1815 158.5449 0006616 162.7911 197.3557 15.33295703460396
LEMUR-2-KADI            
1 43184U 18014E   26138.29691841  .00318616  00000+0  11385-2 0  9998
2 43184  97.4483  67.9824 0004657 116.5749 243.6000 15.88060822456334
S-NET D                 
1 43186U 18014G   26138.50587716  .00003064  00000+0  16122-3 0  9992
2 43186  97.5387  43.4855 0009910 115.8448 244.3808 15.16363063454266
S-NET B                 
1 43187U 18014H   26138.51675108  .00002744  00000+0  14488-3 0  9994
2 43187  97.5393  43.4820 0010602 112.2144 248.0215 15.16333704454262
S-NET A                 
1 43188U 18014J   26138.24094985  .00003023  00000+0  15909-3 0  9993
2 43188  97.5403  43.4112 0010478 113.5751 246.6583 15.16368212454228
