OBJECT_NAME,OBJECT_ID,EPOCH,MEAN_MOTION,ECCENTRICITY,INCLINATION,RA_OF_ASC_NODE,ARG_OF_PERICENTER,MEAN_ANOMALY,EPHEMERIS_TYPE,CLASSIFICATION_TYPE,NORAD_CAT_ID,ELEMENT_SET_NO,REV_AT_EPOCH,BSTAR,MEAN_MOTION_DOT,MEAN_MOTION_DDOT
NORSAT 2,2017-042D,2026-05-18T10:25:46.212096,15.21275734,.0010583,97.4023,312.3647,150.3947,209.7890,0,U,42828,999,48321,.32026E-3,.7102E-4,0
TECHNOSAT,2017-042E,2026-05-18T07:51:10.982016,15.04753476,.0017531,97.4247,297.1316,192.1770,167.9036,0,U,42829,999,48221,.18414E-3,.2545E-4,0
FLYING LAPTOP,2017-042G,2026-05-18T12:29:50.619264,15.00934309,.0017867,97.4555,295.2231,222.1273,137.8579,0,U,42831,999,48200,.19375E-3,.2419E-4,0
WNISAT 1R,2017-042L,2026-05-18T10:33:33.363936,15.01613043,.0009797,97.4803,295.6329,264.1048,95.9060,0,U,42835,999,48204,.12815E-3,.1606E-4,0
LEMUR-2-GREENBERG,2017-042N,2026-05-18T11:25:23.675808,15.30325454,.0010438,97.3807,319.2627,110.1873,250.0492,0,U,42837,999,48384,.31263E-3,.911E-4,0
LEMUR-2-FURIAUS,2017-042R,2026-05-18T06:02:37.349088,15.29176144,.0008227,97.3761,317.0642,161.7936,198.3600,0,U,42840,999,48363,.38943E-3,.10967E-3,0
CORVUS BC2,2017-042X,2026-05-18T08:46:33.125088,15.06086016,.0012311,97.4040,300.8850,207.1063,152.9523,0,U,42846,999,48257,.11432E-3,.1613E-4,0
CORVUS BC1,2017-042Y,2026-05-18T08:43:40.185984,15.06256630,.0011849,97.4069,301.6776,182.5577,177.5592,0,U,42847,999,48260,.10679E-3,.151E-4,0
VRSS-2,2017-060A,2026-05-18T12:43:19.146144,14.81141471,.0016606,97.6532,177.5901,191.7376,168.3452,0,U,42954,999,46406,.11916E-3,.878E-5,0
MOHAMMED VI-A,2017-070A,2026-05-18T12:57:32.385024,14.77094954,.0001571,97.9569,211.2771,105.2484,254.8899,0,U,43005,999,45960,.32065E-4,.176E-5,0
FENGYUN 3D,2017-072A,2026-05-18T11:27:27.415296,14.19733397,.0002345,99.0110,112.3662,111.9857,248.1567,0,U,43010,999,44077,.14502E-3,.261E-5,0
NOAA 20 (JPSS-1),2017-073A,2026-05-18T12:54:40.406688,14.19505611,.0001327,98.7763,78.2660,45.2023,314.9261,0,U,43013,999,44026,.30423E-4,.2E-6,0
MAKERSAT 0,2017-073D,2026-05-18T09:15:12.313152,15.30759863,.0110697,97.4666,20.6957,20.1590,340.3970,0,U,43016,999,46190,.41471E-3,.14841E-3,0
RADFXSAT (FOX-1B),2017-073E,2026-05-18T13:38:36.959712,15.12130594,.0153828,97.4739,6.3981,71.1424,290.6416,0,U,43017,999,46091,.28271E-3,.6433E-4,0
JILIN-1 04,2017-074A,2026-05-18T13:27:09.887040,15.41632431,.0002641,97.4835,247.4070,311.0959,49.0059,0,U,43022,999,46970,.19943E-3,.8309E-4,0
JILIN-1 05,2017-074B,2026-05-18T13:32:30.259104,15.33378816,.0004549,97.4843,244.3338,349.0513,11.0629,0,U,43023,999,46946,.16787E-3,.5335E-4,0
JILIN-1 06,2017-074C,2026-05-18T12:48:33.884064,15.33333472,.000651,97.4770,241.3463,357.7434,2.3777,0,U,43024,999,46929,.12673E-3,.4003E-4,0
IRIDIUM 116,2017-083C,2026-05-18T11:50:47.338080,14.34218500,.0001866,86.3959,334.4213,80.8125,279.3282,0,U,43072,999,43991,-.17352E-5,.15E-6,0
IRIDIUM 130,2017-083D,2026-05-18T11:05:07.085184,14.34218322,.0002214,86.3965,334.7071,82.0688,278.0759,0,U,43073,999,43985,.16189E-4,.65E-6,0
LKW-2,2017-084A,2026-05-18T12:33:04.462848,15.25915132,.0002251,97.1209,179.7112,40.9302,319.2106,0,U,43080,999,46716,.21763E-3,.5513E-4,0
SUPERVIEW-1 03,2018-002A,2026-05-18T12:16:54.390432,15.38266443,.00462,97.3133,223.4181,287.9794,71.6419,0,U,43099,999,46380,.23921E-3,.9268E-4,0
CARTOSAT-2F,2018-004A,2026-05-18T12:04:55.001568,15.19213737,.0001476,97.4809,198.4235,46.9525,313.1833,0,U,43111,999,46282,.33264E-4,.632E-5,0
LKW-3,2018-006A,2026-05-18T10:57:53.765856,15.34619766,.0004008,97.6584,297.8896,67.0043,293.1621,0,U,43146,999,46415,.16558E-3,.547E-4,0
ASNARO-2,2018-007A,2026-05-18T11:27:12.496608,15.22434403,.0001751,97.3980,145.8671,92.0478,268.0959,0,U,43152,999,46289,.23979E-3,.5476E-4,0
JILIN-1 07,2018-008E,2026-05-18T11:40:38.669088,15.34186585,.0009231,97.1784,159.2170,152.9460,207.2267,0,U,43159,999,46044,.16865E-3,.551E-4,0
JILIN-1 08,2018-008F,2026-05-18T11:14:47.073696,15.33295703,.0006616,97.1815,158.5449,162.7911,197.3557,0,U,43160,999,46039,.13999E-3,.443E-4,0
LEMUR-2-KADI,2018-014E,2026-05-18T07:07:33.750624,15.88060822,.0004657,97.4483,67.9824,116.5749,243.6000,0,U,43184,999,45633,.11385E-2,.318616E-2,0
S-NET D,2018-014G,2026-05-18T12:08:27.786624,15.16363063,.000991,97.5387,43.4855,115.8448,244.3808,0,U,43186,999,45426,.16122E-3,.3064E-4,0
S-NET B,2018-014H,2026-05-18T12:24:07.293312,15.16333704,.0010602,97.5393,43.4820,112.2144,248.0215,0,U,43187,999,45426,.14488E-3,.2744E-4,0
S-NET A,2018-014J,2026-05-18T05:46:58.067040,15.16368212,.0010478,97.5403,43.4112,113.5751,246.6583,0,U,43188,999,45422,.15909E-3,.3023E-4,0
